{"type": "Feature", "properties": {}, "geometry": {"type": "Polygon", "coordinates": [[[19.1318, 60.30032], [19.1318, 60.30158], [19.1318, 60.3013], [19.130699999999997, 60.3013], [19.130699999999997, 60.3009], [19.1328, 60.3009], [19.1328, 60.3005], [19.1318, 60.3005], [19.1318, 60.300219999999996], [19.1318, 60.30148], [19.13193348337358, 60.301479552841016], [19.132066760925472, 60.30147821205357], [19.132199627151355, 60.30147597970503], [19.132331877181134, 60.30147285923754], [19.132463307094852, 60.30146885546263], [19.132593714237107, 60.301463974553826], [19.13272289752954, 60.30145822403714], [19.132850657780875, 60.30145161277945], [19.13297679799406, 60.30144415097483], [19.13310112367004, 60.301435850128854], [19.133223443107624, 60.30142672304082], [19.133343567699114, 60.30141678378403], [19.133461312221087, 60.301406047684104], [19.133576495120032, 60.30139453129532], [19.133688938792265, 60.301382252375134], [19.133798469857794, 60.30136922985674], [19.133904919427653, 60.30135548381991], [19.13400812336432, 60.30134103546005], [19.13410792253481, 60.30132590705547], [19.134204163056033, 60.301310121933085], [19.13429669653208, 60.30129370443241], [19.13438538028304, 60.30127667986803], [19.13447007756499, 60.301259074490595], [19.134550657780874, 60.30124091544633], [19.134626996681828, 60.30122223073515], [19.134698976558802, 60.30120304916753], [19.134766486424045, 60.30118340032006], [19.13482942218224, 60.30116331448985], [19.134887686791004, 60.30114282264777], [19.134941190410537, 60.30112195639077], [19.134989850542134, 60.3011007478931], [19.135033592155402, 60.30107922985674], [19.13507234780394, 60.30105743546092], [19.13510605772935, 60.301035398311036], [19.13513466995337, 60.301013152386766], [19.135158140358023, 60.30099073198972], [19.135176432753646, 60.30096817169053], [19.13518951893469, 60.30094550627552], [19.135197378723216, 60.30092277069314], [19.135199999999998, 60.3009], [19.135197378723216, 60.300877229306856], [19.13518951893469, 60.30085449372448], [19.135176432753646, 60.30083182830947], [19.135158140358023, 60.300809268010276], [19.13513466995337, 60.30078684761323], [19.13510605772935, 60.30076460168896], [19.13507234780394, 60.30074256453908], [19.135033592155402, 60.30072077014326], [19.134989850542134, 60.300699252106895], [19.134941190410537, 60.300678043609224], [19.134887686791004, 60.30065717735223], [19.13482942218224, 60.30063668551015], [19.134766486424045, 60.300616599679934], [19.134698976558802, 60.300596950832464], [19.134626996681828, 60.30057776926485], [19.134550657780874, 60.30055908455367], [19.13447007756499, 60.3005409255094], [19.13438538028304, 60.300523320131965], [19.13429669653208, 60.30050629556759], [19.134204163056033, 60.30048987806691], [19.13410792253481, 60.300474092944526], [19.13400812336432, 60.30045896453995], [19.133904919427653, 60.300444516180086], [19.133798469857794, 60.30043077014326], [19.133688938792265, 60.30041774762486], [19.133576495120032, 60.300405468704675], [19.133461312221087, 60.30039395231589], [19.133343567699114, 60.30038321621597], [19.133223443107624, 60.30037327695918], [19.13310112367004, 60.30036414987114], [19.13297679799406, 60.300355849025166], [19.132850657780875, 60.300348387220545], [19.13272289752954, 60.300341775962856], [19.132593714237107, 60.30033602544617], [19.132463307094852, 60.30033114453737], [19.132331877181134, 60.300327140762455], [19.132199627151355, 60.300324020294966], [19.132066760925472, 60.30032178794643], [19.13193348337358, 60.30032044715898], [19.1318, 60.30032]]]}}