{"type": "Feature", "properties": {}, "geometry": {"type": "Polygon", "coordinates": [[[19.131666516626417, 60.301479552841016], [19.1318, 60.300219999999996], [19.1318, 60.3005], [19.1328, 60.3005], [19.1328, 60.3009], [19.130699999999997, 60.3009], [19.130699999999997, 60.3013], [19.1318, 60.3013], [19.1318, 60.30158], [19.131666516626417, 60.30032044715898], [19.131533239074525, 60.30032178794643], [19.131400372848642, 60.300324020294966], [19.131268122818863, 60.300327140762455], [19.131136692905145, 60.30033114453737], [19.13100628576289, 60.30033602544617], [19.130877102470457, 60.300341775962856], [19.130749342219122, 60.300348387220545], [19.130623202005935, 60.300355849025166], [19.130498876329955, 60.30036414987114], [19.130376556892372, 60.30037327695918], [19.130256432300882, 60.30038321621597], [19.13013868777891, 60.30039395231589], [19.130023504879965, 60.300405468704675], [19.129911061207732, 60.30041774762486], [19.129801530142203, 60.30043077014326], [19.129695080572343, 60.300444516180086], [19.129591876635676, 60.30045896453995], [19.129492077465187, 60.300474092944526], [19.129395836943964, 60.30048987806691], [19.129303303467918, 60.30050629556759], [19.129214619716958, 60.300523320131965], [19.129129922435006, 60.3005409255094], [19.129049342219123, 60.30055908455367], [19.12897300331817, 60.30057776926485], [19.128901023441195, 60.300596950832464], [19.12883351357595, 60.300616599679934], [19.128770577817757, 60.30063668551015], [19.128712313208993, 60.30065717735223], [19.12865880958946, 60.300678043609224], [19.128610149457863, 60.300699252106895], [19.128566407844595, 60.30072077014326], [19.128527652196055, 60.30074256453908], [19.128493942270648, 60.30076460168896], [19.128465330046627, 60.30078684761323], [19.128441859641974, 60.300809268010276], [19.12842356724635, 60.30083182830947], [19.128410481065306, 60.30085449372448], [19.12840262127678, 60.300877229306856], [19.1284, 60.3009], [19.12840262127678, 60.30092277069314], [19.128410481065306, 60.30094550627552], [19.12842356724635, 60.30096817169053], [19.128441859641974, 60.30099073198972], [19.128465330046627, 60.301013152386766], [19.128493942270648, 60.301035398311036], [19.128527652196055, 60.30105743546092], [19.128566407844595, 60.30107922985674], [19.128610149457863, 60.3011007478931], [19.12865880958946, 60.30112195639077], [19.128712313208993, 60.30114282264777], [19.128770577817757, 60.30116331448985], [19.12883351357595, 60.30118340032006], [19.128901023441195, 60.30120304916753], [19.12897300331817, 60.30122223073515], [19.129049342219123, 60.30124091544633], [19.129129922435006, 60.301259074490595], [19.129214619716958, 60.30127667986803], [19.129303303467918, 60.30129370443241], [19.129395836943964, 60.301310121933085], [19.129492077465187, 60.30132590705547], [19.129591876635676, 60.30134103546005], [19.129695080572343, 60.30135548381991], [19.129801530142203, 60.30136922985674], [19.129911061207732, 60.301382252375134], [19.130023504879965, 60.30139453129532], [19.13013868777891, 60.301406047684104], [19.130256432300882, 60.30141678378403], [19.130376556892372, 60.30142672304082], [19.130498876329955, 60.301435850128854], [19.130623202005935, 60.30144415097483], [19.130749342219122, 60.30145161277945], [19.130877102470457, 60.30145822403714], [19.13100628576289, 60.301463974553826], [19.131136692905145, 60.30146885546263], [19.131268122818863, 60.30147285923754], [19.131400372848642, 60.30147597970503], [19.131533239074525, 60.30147821205357], [19.131666516626417, 60.301479552841016]]]}}