{"type": "Feature", "properties": {}, "geometry": {"type": "Polygon", "coordinates": [[[-79.84545871989948, 9.368282364455617], [-79.84015679152206, 9.297329951143539], [-79.77815830155245, 9.184198139286078], [-79.63957097276825, 9.113170355049615], [-79.526966991411, 9.023033008588992], [-79.4689699896595, 8.94359286452893], [-79.5910300103405, 8.85640713547107], [-79.633033008589, 8.916966991411009], [-79.72042902723176, 8.986829644950387], [-79.88184169844754, 9.075801860713923], [-79.97984320847793, 9.24267004885646], [-79.99454128010052, 9.351717635544382], [-79.84545871989948, 9.368282364455617]]]}}