{"type": "FeatureCollection", "features": [{"type": "Feature", "properties": {"name": "Nile Valley and Delta (schematic, widened for visibility)"}, "geometry": {"type": "Polygon", "coordinates": [[[32.699999999999996, 24.09], [32.73, 24.47], [32.68, 24.98], [32.349999999999994, 25.29], [32.44, 25.69], [32.519999999999996, 26.16], [32.05, 26.05], [31.5, 26.56], [30.98, 27.18], [30.55, 28.1], [30.900000000000002, 29.07], [31.05, 29.6], [31.04, 30.04], [31.0, 30.2], [30.3, 30.6], [29.9, 31.2], [30.4, 31.45], [31.2, 31.5], [31.9, 31.45], [32.3, 31.28], [32.2, 30.9], [31.8, 30.55], [31.4, 30.15], [31.439999999999998, 30.04], [31.45, 29.6], [31.3, 29.07], [30.95, 28.1], [31.38, 27.18], [31.9, 26.56], [32.45, 26.05], [32.92, 26.16], [32.84, 25.69], [32.75, 25.29], [33.080000000000005, 24.98], [33.13, 24.47], [33.1, 24.09], [32.699999999999996, 24.09]]]}}]}